{"type": "FeatureCollection", "features": [ {"type": "Feature", "properties": {"norad_id": 46993, "name": "FENGYUN 1C DEB", "group": "fengyun-1c-debris", "lat": 78.87236787217685, "lon": -11.041359575443941, "alt_km": 1182.98795054719, "timestamp": "2025-12-26T11:25:45.483509+00:00", "meta": {"OBJECT_NAME": "FENGYUN 1C DEB", "OBJECT_ID": "1999-025EZT", "EPOCH": "2025-12-18T13:48:38.255328", "MEAN_MOTION": 13.69154142, "ECCENTRICITY": 0.02625123, "INCLINATION": 98.7233, "RA_OF_ASC_NODE": 110.4847, "ARG_OF_PERICENTER": 283.8917, "MEAN_ANOMALY": 132.0062, "EPHEMERIS_TYPE": 0, "CLASSIFICATION_TYPE": "U", "NORAD_CAT_ID": 46993, "ELEMENT_SET_NO": 999, "REV_AT_EPOCH": 60337, "BSTAR": 0.00040493614, "MEAN_MOTION_DOT": 4.06e-06, "MEAN_MOTION_DDOT": 0}, "tle": {"line1": "1 46993U 99025EZT 25352.57544277  .00000406  00000+0  40494-3 0  9997", "line2": "2 46993  98.7233 110.4847 0262512 283.8917 132.0062 13.69154142603375"}}, "geometry": {"type": "Point", "coordinates": [-11.041359575443941, 78.87236787217685]}}, {"type": "Feature", "properties": {"norad_id": 46995, "name": "FENGYUN 1C DEB", "group": "fengyun-1c-debris", "lat": -41.0225385675213, "lon": -106.18931072756251, "alt_km": 1053.258841348411, "timestamp": "2025-12-26T11:25:45.483518+00:00", "meta": {"OBJECT_NAME": "FENGYUN 1C DEB", "OBJECT_ID": "1999-025EZV", "EPOCH": "2025-12-23T04:26:24.187488", "MEAN_MOTION": 13.8641105, "ECCENTRICITY": 0.01880773, "INCLINATION": 98.595, "RA_OF_ASC_NODE": 78.3463, "ARG_OF_PERICENTER": 89.717, "MEAN_ANOMALY": 272.5537, "EPHEMERIS_TYPE": 0, "CLASSIFICATION_TYPE": "U", "NORAD_CAT_ID": 46995, "ELEMENT_SET_NO": 999, "REV_AT_EPOCH": 60613, "BSTAR": 0.0022808923, "MEAN_MOTION_DOT": 3e-05, "MEAN_MOTION_DDOT": 0}, "tle": {"line1": "1 46995U 99025EZV 25357.18500217  .00003000  00000+0  22809-2 0  9999", "line2": "2 46995  98.5950  78.3463 0188077  89.7170 272.5537 13.86411050606131"}}, "geometry": {"type": "Point", "coordinates": [-106.18931072756251, -41.0225385675213]}}, {"type": "Feature", "properties": {"norad_id": 46997, "name": "FENGYUN 1C DEB", "group": "fengyun-1c-debris", "lat": 76.26267009135566, "lon": 2.5235077108671264, "alt_km": 805.4763922580769, "timestamp": "2025-12-26T11:25:45.483527+00:00", "meta": {"OBJECT_NAME": "FENGYUN 1C DEB", "OBJECT_ID": "1999-025EZX", "EPOCH": "2025-12-24T21:13:44.521248", "MEAN_MOTION": 14.28060858, "ECCENTRICITY": 0.0024736, "INCLINATION": 98.5571, "RA_OF_ASC_NODE": 38.9817, "ARG_OF_PERICENTER": 298.9798, "MEAN_ANOMALY": 241.8889, "EPHEMERIS_TYPE": 0, "CLASSIFICATION_TYPE": "U", "NORAD_CAT_ID": 46997, "ELEMENT_SET_NO": 999, "REV_AT_EPOCH": 62624, "BSTAR": 0.0011356, "MEAN_MOTION_DOT": 2.787e-05, "MEAN_MOTION_DDOT": 0}, "tle": {"line1": "1 46997U 99025EZX 25358.88454307  .00002787  00000+0  11356-2 0  9993", "line2": "2 46997  98.5571  38.9817 0024736 298.9798 241.8889 14.28060858626244"}}, "geometry": {"type": "Point", "coordinates": [2.5235077108671264, 76.26267009135566]}}, {"type": "Feature", "properties": {"norad_id": 47001, "name": "FENGYUN 1C DEB", "group": "fengyun-1c-debris", "lat": -77.00629200227664, "lon": -165.6153739463194, "alt_km": 781.8364120372134, "timestamp": "2025-12-26T11:25:45.483536+00:00", "meta": {"OBJECT_NAME": "FENGYUN 1C DEB", "OBJECT_ID": "1999-025FAB", "EPOCH": "2025-12-21T21:42:56.731392", "MEAN_MOTION": 14.38539606, "ECCENTRICITY": 0.00511443, "INCLINATION": 99.3039, "RA_OF_ASC_NODE": 54.7035, "ARG_OF_PERICENTER": 22.5834, "MEAN_ANOMALY": 337.7586, "EPHEMERIS_TYPE": 0, "CLASSIFICATION_TYPE": "U", "NORAD_CAT_ID": 47001, "ELEMENT_SET_NO": 999, "REV_AT_EPOCH": 74046, "BSTAR": 0.0013955962, "MEAN_MOTION_DOT": 4.285e-05, "MEAN_MOTION_DDOT": 0}, "tle": {"line1": "1 47001U 99025FAB 25355.90482328  .00004285  00000+0  13956-2 0  9997", "line2": "2 47001  99.3039  54.7035 0051144  22.5834 337.7586 14.38539606740465"}}, "geometry": {"type": "Point", "coordinates": [-165.6153739463194, -77.00629200227664]}}, {"type": "Feature", "properties": {"norad_id": 47005, "name": "FENGYUN 1C DEB", "group": "fengyun-1c-debris", "lat": 62.574653220453264, "lon": 71.30637815603528, "alt_km": 886.1564503123554, "timestamp": "2025-12-26T11:25:45.483545+00:00", "meta": {"OBJECT_NAME": "FENGYUN 1C DEB", "OBJECT_ID": "1999-025FAF", "EPOCH": "2025-12-21T12:05:43.680192", "MEAN_MOTION": 14.11117395, "ECCENTRICITY": 0.00655889, "INCLINATION": 99.6008, "RA_OF_ASC_NODE": 85.032, "ARG_OF_PERICENTER": 219.2127, "MEAN_ANOMALY": 159.8182, "EPHEMERIS_TYPE": 0, "CLASSIFICATION_TYPE": "U", "NORAD_CAT_ID": 47005, "ELEMENT_SET_NO": 999, "REV_AT_EPOCH": 82891, "BSTAR": 0.0018102005, "MEAN_MOTION_DOT": 3.277e-05, "MEAN_MOTION_DDOT": 0}, "tle": {"line1": "1 47005U 99025FAF 25355.50397778  .00003277  00000+0  18102-2 0  9999", "line2": "2 47005  99.6008  85.0320 0065588 219.2127 159.8182 14.11117395828919"}}, "geometry": {"type": "Point", "coordinates": [71.30637815603528, 62.574653220453264]}}, {"type": "Feature", "properties": {"norad_id": 47007, "name": "FENGYUN 1C DEB", "group": "fengyun-1c-debris", "lat": -49.269488674984096, "lon": 31.361247101146947, "alt_km": 1050.4229261306054, "timestamp": "2025-12-26T11:25:45.483555+00:00", "meta": {"OBJECT_NAME": "FENGYUN 1C DEB", "OBJECT_ID": "1999-025FAH", "EPOCH": "2025-12-24T20:31:18.466176", "MEAN_MOTION": 13.97325313, "ECCENTRICITY": 0.02372126, "INCLINATION": 98.2081, "RA_OF_ASC_NODE": 219.5608, "ARG_OF_PERICENTER": 19.6973, "MEAN_ANOMALY": 341.3167, "EPHEMERIS_TYPE": 0, "CLASSIFICATION_TYPE": "U", "NORAD_CAT_ID": 47007, "ELEMENT_SET_NO": 999, "REV_AT_EPOCH": 79018, "BSTAR": 0.0025662344, "MEAN_MOTION_DOT": 4.534e-05, "MEAN_MOTION_DDOT": 0}, "tle": {"line1": "1 47007U 99025FAH 25358.85507484  .00004534  00000+0  25662-2 0  9995", "line2": "2 47007  98.2081 219.5608 0237212  19.6973 341.3167 13.97325313790188"}}, "geometry": {"type": "Point", "coordinates": [31.361247101146947, -49.269488674984096]}}, {"type": "Feature", "properties": {"norad_id": 47009, "name": "FENGYUN 1C DEB", "group": "fengyun-1c-debris", "lat": 80.10881693004485, "lon": -132.95826930063774, "alt_km": 1278.332071646435, "timestamp": "2025-12-26T11:25:45.483564+00:00", "meta": {"OBJECT_NAME": "FENGYUN 1C DEB", "OBJECT_ID": "1999-025FAK", "EPOCH": "2025-12-21T05:14:14.201088", "MEAN_MOTION": 13.37315869, "ECCENTRICITY": 0.0351179, "INCLINATION": 98.9317, "RA_OF_ASC_NODE": 338.0153, "ARG_OF_PERICENTER": 238.1062, "MEAN_ANOMALY": 118.5455, "EPHEMERIS_TYPE": 0, "CLASSIFICATION_TYPE": "U", "NORAD_CAT_ID": 47009, "ELEMENT_SET_NO": 999, "REV_AT_EPOCH": 58922, "BSTAR": 0.00028582, "MEAN_MOTION_DOT": 1.74e-06, "MEAN_MOTION_DDOT": 0}, "tle": {"line1": "1 47009U 99025FAK 25355.21821992  .00000174  00000+0  28582-3 0  9998", "line2": "2 47009  98.9317 338.0153 0351179 238.1062 118.5455 13.37315869589221"}}, "geometry": {"type": "Point", "coordinates": [-132.95826930063774, 80.10881693004485]}}, {"type": "Feature", "properties": {"norad_id": 47012, "name": "FENGYUN 1C DEB", "group": "fengyun-1c-debris", "lat": -26.148657227363604, "lon": -117.76890041193985, "alt_km": 903.071113116328, "timestamp": "2025-12-26T11:25:45.483573+00:00", "meta": {"OBJECT_NAME": "FENGYUN 1C DEB", "OBJECT_ID": "1999-025FAN", "EPOCH": "2025-12-05T22:22:36.481152", "MEAN_MOTION": 13.77908149, "ECCENTRICITY": 0.01638485, "INCLINATION": 98.755, "RA_OF_ASC_NODE": 218.9381, "ARG_OF_PERICENTER": 81.7177, "MEAN_ANOMALY": 280.2518, "EPHEMERIS_TYPE": 0, "CLASSIFICATION_TYPE": "U", "NORAD_CAT_ID": 47012, "ELEMENT_SET_NO": 999, "REV_AT_EPOCH": 54479, "BSTAR": 0.00065808903, "MEAN_MOTION_DOT": 6.91e-06, "MEAN_MOTION_DDOT": 0}, "tle": {"line1": "1 47012U 99025FAN 25339.93236668  .00000691  00000+0  65809-3 0  9990", "line2": "2 47012  98.7550 218.9381 0163848  81.7177 280.2518 13.77908149544797"}}, "geometry": {"type": "Point", "coordinates": [-117.76890041193985, -26.148657227363604]}}, {"type": "Feature", "properties": {"norad_id": 47015, "name": "FENGYUN 1C DEB", "group": "fengyun-1c-debris", "lat": -45.053854241886285, "lon": 67.35460150141351, "alt_km": 660.8670904244791, "timestamp": "2025-12-26T11:25:45.483582+00:00", "meta": {"OBJECT_NAME": "FENGYUN 1C DEB", "OBJECT_ID": "1999-025FAR", "EPOCH": "2025-12-24T03:07:57.208800", "MEAN_MOTION": 14.87536317, "ECCENTRICITY": 0.01753341, "INCLINATION": 98.7084, "RA_OF_ASC_NODE": 55.9475, "ARG_OF_PERICENTER": 76.2104, "MEAN_ANOMALY": 285.8553, "EPHEMERIS_TYPE": 0, "CLASSIFICATION_TYPE": "U", "NORAD_CAT_ID": 47015, "ELEMENT_SET_NO": 999, "REV_AT_EPOCH": 64551, "BSTAR": 0.00064777289, "MEAN_MOTION_DOT": 7.74e-05, "MEAN_MOTION_DDOT": 0}, "tle": {"line1": "1 47015U 99025FAR 25358.13052325  .00007740  00000+0  64777-3 0  9997", "line2": "2 47015  98.7084  55.9475 0175334  76.2104 285.8553 14.87536317645515"}}, "geometry": {"type": "Point", "coordinates": [67.35460150141351, -45.053854241886285]}}, {"type": "Feature", "properties": {"norad_id": 47025, "name": "FENGYUN 1C DEB", "group": "fengyun-1c-debris", "lat": 70.12009470976706, "lon": -178.18936233109807, "alt_km": 742.397496246007, "timestamp": "2025-12-26T11:25:45.483609+00:00", "meta": {"OBJECT_NAME": "FENGYUN 1C DEB", "OBJECT_ID": "1999-025FBB", "EPOCH": "2025-12-23T20:05:47.173056", "MEAN_MOTION": 14.46439177, "ECCENTRICITY": 0.00404785, "INCLINATION": 99.0325, "RA_OF_ASC_NODE": 205.0979, "ARG_OF_PERICENTER": 325.1596, "MEAN_ANOMALY": 53.272, "EPHEMERIS_TYPE": 0, "CLASSIFICATION_TYPE": "U", "NORAD_CAT_ID": 47025, "ELEMENT_SET_NO": 999, "REV_AT_EPOCH": 62902, "BSTAR": 0.0020639446, "MEAN_MOTION_DOT": 7.452e-05, "MEAN_MOTION_DDOT": 0}, "tle": {"line1": "1 47025U 99025FBB 25357.83735154  .00007452  00000+0  20639-2 0  9990", "line2": "2 47025  99.0325 205.0979 0040478 325.1596  53.2720 14.46439177629028"}}, "geometry": {"type": "Point", "coordinates": [-178.18936233109807, 70.12009470976706]}}]}